{"type": "FeatureCollection", "features": [ {"type": "Feature", "properties": {"norad_id": 33492, "name": "GOSAT (IBUKI)", "group": "resource", "lat": 76.55156060687771, "lon": 72.29539554460929, "alt_km": 661.0077043629472, "timestamp": "2025-12-26T07:29:18.116378+00:00", "meta": {"OBJECT_NAME": "GOSAT (IBUKI)", "OBJECT_ID": "2009-002A", "EPOCH": "2025-12-25T19:40:27.371136", "MEAN_MOTION": 14.67549933, "ECCENTRICITY": 0.00010311, "INCLINATION": 98.0771, "RA_OF_ASC_NODE": 108.2414, "ARG_OF_PERICENTER": 105.3018, "MEAN_ANOMALY": 254.8301, "EPHEMERIS_TYPE": 0, "CLASSIFICATION_TYPE": "U", "NORAD_CAT_ID": 33492, "ELEMENT_SET_NO": 999, "REV_AT_EPOCH": 90603, "BSTAR": 0.00017175521, "MEAN_MOTION_DOT": 9.26e-06, "MEAN_MOTION_DDOT": 0}, "tle": {"line1": "1 33492U 09002A   25359.81976124  .00000926  00000+0  17176-3 0  9995", "line2": "2 33492  98.0771 108.2414 0001031 105.3018 254.8301 14.67549933906030"}}, "geometry": {"type": "Point", "coordinates": [72.29539554460929, 76.55156060687771]}}, {"type": "Feature", "properties": {"norad_id": 35681, "name": "DEIMOS-1", "group": "resource", "lat": 21.05994857218203, "lon": -16.723270376588967, "alt_km": 645.4664566224983, "timestamp": "2025-12-26T07:29:18.116389+00:00", "meta": {"OBJECT_NAME": "DEIMOS-1", "OBJECT_ID": "2009-041A", "EPOCH": "2025-12-25T22:37:51.672288", "MEAN_MOTION": 14.74971621, "ECCENTRICITY": 0.00024534, "INCLINATION": 97.7158, "RA_OF_ASC_NODE": 159.9324, "ARG_OF_PERICENTER": 59.8125, "MEAN_ANOMALY": 300.3327, "EPHEMERIS_TYPE": 0, "CLASSIFICATION_TYPE": "U", "NORAD_CAT_ID": 35681, "ELEMENT_SET_NO": 999, "REV_AT_EPOCH": 88134, "BSTAR": 0.00010562581, "MEAN_MOTION_DOT": 6.63e-06, "MEAN_MOTION_DDOT": 0}, "tle": {"line1": "1 35681U 09041A   25359.94295917  .00000663  00000+0  10563-3 0  9999", "line2": "2 35681  97.7158 159.9324 0002453  59.8125 300.3327 14.74971621881343"}}, "geometry": {"type": "Point", "coordinates": [-16.723270376588967, 21.05994857218203]}}, {"type": "Feature", "properties": {"norad_id": 35682, "name": "DUBAISAT-1", "group": "resource", "lat": 74.91151066116346, "lon": 99.43991275254953, "alt_km": 645.5912749885329, "timestamp": "2025-12-26T07:29:18.116401+00:00", "meta": {"OBJECT_NAME": "DUBAISAT-1", "OBJECT_ID": "2009-041B", "EPOCH": "2025-12-25T22:59:48.724512", "MEAN_MOTION": 14.74639444, "ECCENTRICITY": 0.00092507, "INCLINATION": 97.9799, "RA_OF_ASC_NODE": 130.4441, "ARG_OF_PERICENTER": 266.7795, "MEAN_ANOMALY": 93.2355, "EPHEMERIS_TYPE": 0, "CLASSIFICATION_TYPE": "U", "NORAD_CAT_ID": 35682, "ELEMENT_SET_NO": 999, "REV_AT_EPOCH": 87956, "BSTAR": 0.00020689449, "MEAN_MOTION_DOT": 1.33e-05, "MEAN_MOTION_DDOT": 0}, "tle": {"line1": "1 35682U 09041B   25359.95820283  .00001330  00000+0  20689-3 0  9993", "line2": "2 35682  97.9799 130.4441 0009250 266.7795  93.2355 14.74639444879569"}}, "geometry": {"type": "Point", "coordinates": [99.43991275254953, 74.91151066116346]}}, {"type": "Feature", "properties": {"norad_id": 35931, "name": "OCEANSAT-2", "group": "resource", "lat": -15.410052476989431, "lon": 177.2514512932898, "alt_km": 911.2599690742418, "timestamp": "2025-12-26T07:29:18.116412+00:00", "meta": {"OBJECT_NAME": "OCEANSAT-2", "OBJECT_ID": "2009-051A", "EPOCH": "2025-12-25T23:41:40.611840", "MEAN_MOTION": 13.99622975, "ECCENTRICITY": 0.00158773, "INCLINATION": 98.2218, "RA_OF_ASC_NODE": 359.2436, "ARG_OF_PERICENTER": 10.1974, "MEAN_ANOMALY": 349.9512, "EPHEMERIS_TYPE": 0, "CLASSIFICATION_TYPE": "U", "NORAD_CAT_ID": 35931, "ELEMENT_SET_NO": 999, "REV_AT_EPOCH": 85510, "BSTAR": 2.8744485e-05, "MEAN_MOTION_DOT": 5e-08, "MEAN_MOTION_DDOT": 0}, "tle": {"line1": "1 35931U 09051A   25359.98727560  .00000005  00000+0  28744-4 0  9997", "line2": "2 35931  98.2218 359.2436 0015877  10.1974 349.9512 13.99622975855100"}}, "geometry": {"type": "Point", "coordinates": [177.2514512932898, -15.410052476989431]}}, {"type": "Feature", "properties": {"norad_id": 35946, "name": "WORLDVIEW-2 (WV-2)", "group": "resource", "lat": 15.989730279389018, "lon": 68.76066138344763, "alt_km": 763.530991216996, "timestamp": "2025-12-26T07:29:18.116422+00:00", "meta": {"OBJECT_NAME": "WORLDVIEW-2 (WV-2)", "OBJECT_ID": "2009-055A", "EPOCH": "2025-12-25T21:23:30.730560", "MEAN_MOTION": 14.37729731, "ECCENTRICITY": 0.00046762, "INCLINATION": 98.4772, "RA_OF_ASC_NODE": 70.7952, "ARG_OF_PERICENTER": 38.0554, "MEAN_ANOMALY": 322.0963, "EPHEMERIS_TYPE": 0, "CLASSIFICATION_TYPE": "U", "NORAD_CAT_ID": 35946, "ELEMENT_SET_NO": 999, "REV_AT_EPOCH": 85074, "BSTAR": 7.1851445e-05, "MEAN_MOTION_DOT": 1.73e-06, "MEAN_MOTION_DDOT": 0}, "tle": {"line1": "1 35946U 09055A   25359.89132790  .00000173  00000+0  71851-4 0  9995", "line2": "2 35946  98.4772  70.7952 0004676  38.0554 322.0963 14.37729731850747"}}, "geometry": {"type": "Point", "coordinates": [68.76066138344763, 15.989730279389018]}}, {"type": "Feature", "properties": {"norad_id": 36036, "name": "SMOS", "group": "resource", "lat": 29.234618711130466, "lon": 9.925112611054946, "alt_km": 757.592361582786, "timestamp": "2025-12-26T07:29:18.116433+00:00", "meta": {"OBJECT_NAME": "SMOS", "OBJECT_ID": "2009-059A", "EPOCH": "2025-12-25T22:27:10.833984", "MEAN_MOTION": 14.39752777, "ECCENTRICITY": 0.000105, "INCLINATION": 98.4382, "RA_OF_ASC_NODE": 184.7887, "ARG_OF_PERICENTER": 83.6861, "MEAN_ANOMALY": 276.4447, "EPHEMERIS_TYPE": 0, "CLASSIFICATION_TYPE": "U", "NORAD_CAT_ID": 36036, "ELEMENT_SET_NO": 999, "REV_AT_EPOCH": 84852, "BSTAR": 0.00013815178, "MEAN_MOTION_DOT": 3.89e-06, "MEAN_MOTION_DDOT": 0}, "tle": {"line1": "1 36036U 09059A   25359.93554206  .00000389  00000+0  13815-3 0  9999", "line2": "2 36036  98.4382 184.7887 0001050  83.6861 276.4447 14.39752777848528"}}, "geometry": {"type": "Point", "coordinates": [9.925112611054946, 29.234618711130466]}}, {"type": "Feature", "properties": {"norad_id": 36110, "name": "YAOGAN-7", "group": "resource", "lat": 28.375618685737376, "lon": -122.35295448457849, "alt_km": 649.926406980796, "timestamp": "2025-12-26T07:29:18.116443+00:00", "meta": {"OBJECT_NAME": "YAOGAN-7", "OBJECT_ID": "2009-069A", "EPOCH": "2025-12-25T15:06:27.948096", "MEAN_MOTION": 14.77750828, "ECCENTRICITY": 0.0023473, "INCLINATION": 98.0293, "RA_OF_ASC_NODE": 241.34, "ARG_OF_PERICENTER": 237.3652, "MEAN_ANOMALY": 122.5293, "EPHEMERIS_TYPE": 0, "CLASSIFICATION_TYPE": "U", "NORAD_CAT_ID": 36110, "ELEMENT_SET_NO": 999, "REV_AT_EPOCH": 86399, "BSTAR": 0.00010215, "MEAN_MOTION_DOT": 6.82e-06, "MEAN_MOTION_DDOT": 0}, "tle": {"line1": "1 36110U 09069A   25359.62949014  .00000682  00000+0  10215-3 0  9991", "line2": "2 36110  98.0293 241.3400 0023473 237.3652 122.5293 14.77750828863993"}}, "geometry": {"type": "Point", "coordinates": [-122.35295448457849, 28.375618685737376]}}, {"type": "Feature", "properties": {"norad_id": 36605, "name": "TANDEM-X", "group": "resource", "lat": 45.36453576612083, "lon": -166.89496084001686, "alt_km": 503.64866620651264, "timestamp": "2025-12-26T07:29:18.116453+00:00", "meta": {"OBJECT_NAME": "TANDEM-X", "OBJECT_ID": "2010-030A", "EPOCH": "2025-12-25T13:30:40.340160", "MEAN_MOTION": 15.19154497, "ECCENTRICITY": 0.0001775, "INCLINATION": 97.4454, "RA_OF_ASC_NODE": 4.7557, "ARG_OF_PERICENTER": 93.2666, "MEAN_ANOMALY": 266.8771, "EPHEMERIS_TYPE": 0, "CLASSIFICATION_TYPE": "U", "NORAD_CAT_ID": 36605, "ELEMENT_SET_NO": 999, "REV_AT_EPOCH": 86028, "BSTAR": 5.683e-05, "MEAN_MOTION_DOT": 1.127e-05, "MEAN_MOTION_DDOT": 0}, "tle": {"line1": "1 36605U 10030A   25359.56296690  .00001127  00000+0  56830-4 0  9997", "line2": "2 36605  97.4454   4.7557 0001775  93.2666 266.8771 15.19154497860282"}}, "geometry": {"type": "Point", "coordinates": [-166.89496084001686, 45.36453576612083]}}, {"type": "Feature", "properties": {"norad_id": 36795, "name": "CARTOSAT-2B", "group": "resource", "lat": 3.9758829252425523, "lon": 48.3546893775768, "alt_km": 628.3551396364128, "timestamp": "2025-12-26T07:29:18.116463+00:00", "meta": {"OBJECT_NAME": "CARTOSAT-2B", "OBJECT_ID": "2010-035A", "EPOCH": "2025-12-25T23:21:01.342944", "MEAN_MOTION": 14.78744775, "ECCENTRICITY": 0.00125126, "INCLINATION": 97.7831, "RA_OF_ASC_NODE": 48.5714, "ARG_OF_PERICENTER": 37.5204, "MEAN_ANOMALY": 322.6879, "EPHEMERIS_TYPE": 0, "CLASSIFICATION_TYPE": "U", "NORAD_CAT_ID": 36795, "ELEMENT_SET_NO": 999, "REV_AT_EPOCH": 83425, "BSTAR": 0.00014809411, "MEAN_MOTION_DOT": 1.038e-05, "MEAN_MOTION_DDOT": 0}, "tle": {"line1": "1 36795U 10035A   25359.97293221  .00001038  00000+0  14809-3 0  9994", "line2": "2 36795  97.7831  48.5714 0012512  37.5204 322.6879 14.78744775834251"}}, "geometry": {"type": "Point", "coordinates": [48.3546893775768, 3.9758829252425523]}}, {"type": "Feature", "properties": {"norad_id": 36834, "name": "YAOGAN-10", "group": "resource", "lat": 12.063602656163036, "lon": 18.326924636356058, "alt_km": 615.5866862807661, "timestamp": "2025-12-26T07:29:18.116474+00:00", "meta": {"OBJECT_NAME": "YAOGAN-10", "OBJECT_ID": "2010-038A", "EPOCH": "2025-12-25T23:43:43.913280", "MEAN_MOTION": 14.84657584, "ECCENTRICITY": 0.00013801, "INCLINATION": 97.9134, "RA_OF_ASC_NODE": 19.7095, "ARG_OF_PERICENTER": 79.0864, "MEAN_ANOMALY": 6.251, "EPHEMERIS_TYPE": 0, "CLASSIFICATION_TYPE": "U", "NORAD_CAT_ID": 36834, "ELEMENT_SET_NO": 999, "REV_AT_EPOCH": 83150, "BSTAR": 0.00021691298, "MEAN_MOTION_DOT": 1.781e-05, "MEAN_MOTION_DDOT": 0}, "tle": {"line1": "1 36834U 10038A   25359.98870270  .00001781  00000+0  21691-3 0  9999", "line2": "2 36834  97.9134  19.7095 0001380  79.0864   6.2510 14.84657584831509"}}, "geometry": {"type": "Point", "coordinates": [18.326924636356058, 12.063602656163036]}}]}